{
  "type": "FeatureCollection",
  "features": [
    {
      "type": "Feature",
      "properties": {
        "norad_id": 30736,
        "name": "FENGYUN 1C DEB",
        "group": "fengyun-1c-debris",
        "lat": 69.87942681575917,
        "lon": -138.55614173477443,
        "alt_km": 840.3550930943738,
        "timestamp": "2025-12-03T13:52:09.840170+00:00",
        "meta_object_name": "FENGYUN 1C DEB",
        "meta_object_id": "1999-025ASW",
        "meta_epoch": "2025-12-02T02:21:41.486112",
        "meta_mean_motion": 13.61584832,
        "meta_eccentricity": 0.02814534,
        "meta_inclination": 98.794,
        "meta_ra_of_asc_node": 15.1149,
        "meta_arg_of_pericenter": 82.4102,
        "meta_mean_anomaly": 335.9555,
        "meta_ephemeris_type": 0,
        "meta_classification_type": "U",
        "meta_norad_cat_id": 30736,
        "meta_element_set_no": 999,
        "meta_rev_at_epoch": 92708,
        "meta_bstar": 0.0022039169,
        "meta_mean_motion_dot": 2.161e-05,
        "meta_mean_motion_ddot": 0,
        "tle_line1": "1 30736U 99025ASW 25336.09839683  .00002161  00000+0  22039-2 0  9996",
        "tle_line2": "2 30736  98.7940  15.1149 0281453  82.4102 335.9555 13.61584832927081"
      },
      "geometry": {
        "type": "Point",
        "coordinates": [
          -138.55614173477443,
          69.87942681575917
        ]
      }
    },
    {
      "type": "Feature",
      "properties": {
        "norad_id": 30737,
        "name": "FENGYUN 1C DEB",
        "group": "fengyun-1c-debris",
        "lat": 73.00274359762217,
        "lon": -69.39034015577285,
        "alt_km": 821.9246025914144,
        "timestamp": "2025-12-03T13:52:09.840181+00:00",
        "meta_object_name": "FENGYUN 1C DEB",
        "meta_object_id": "1999-025ASX",
        "meta_epoch": "2025-12-02T22:32:37.687776",
        "meta_mean_motion": 14.18233515,
        "meta_eccentricity": 0.0023622,
        "meta_inclination": 98.5784,
        "meta_ra_of_asc_node": 319.5836,
        "meta_arg_of_pericenter": 159.2509,
        "meta_mean_anomaly": 257.8664,
        "meta_ephemeris_type": 0,
        "meta_classification_type": "U",
        "meta_norad_cat_id": 30737,
        "meta_element_set_no": 999,
        "meta_rev_at_epoch": 96894,
        "meta_bstar": 0.00039665201,
        "meta_mean_motion_dot": 7.76e-06,
        "meta_mean_motion_ddot": 0,
        "tle_line1": "1 30737U 99025ASX 25336.93932509  .00000776  00000+0  39665-3 0  9995",
        "tle_line2": "2 30737  98.5784 319.5836 0023622 159.2509 257.8664 14.18233515968941"
      },
      "geometry": {
        "type": "Point",
        "coordinates": [
          -69.39034015577285,
          73.00274359762217
        ]
      }
    },
    {
      "type": "Feature",
      "properties": {
        "norad_id": 30739,
        "name": "FENGYUN 1C DEB",
        "group": "fengyun-1c-debris",
        "lat": -59.44300977446804,
        "lon": -20.034535103569848,
        "alt_km": 796.8121311561636,
        "timestamp": "2025-12-03T13:52:09.840191+00:00",
        "meta_object_name": "FENGYUN 1C DEB",
        "meta_object_id": "1999-025ASZ",
        "meta_epoch": "2025-12-03T05:44:19.366656",
        "meta_mean_motion": 14.1492353,
        "meta_eccentricity": 0.01010257,
        "meta_inclination": 98.6918,
        "meta_ra_of_asc_node": 324.6185,
        "meta_arg_of_pericenter": 344.4215,
        "meta_mean_anomaly": 31.1724,
        "meta_ephemeris_type": 0,
        "meta_classification_type": "U",
        "meta_norad_cat_id": 30739,
        "meta_element_set_no": 999,
        "meta_rev_at_epoch": 96729,
        "meta_bstar": 0.00065690223,
        "meta_mean_motion_dot": 1.29e-05,
        "meta_mean_motion_ddot": 0,
        "tle_line1": "1 30739U 99025ASZ 25337.23911304  .00001290  00000+0  65690-3 0  9990",
        "tle_line2": "2 30739  98.6918 324.6185 0101025 344.4215  31.1724 14.14923530967299"
      },
      "geometry": {
        "type": "Point",
        "coordinates": [
          -20.034535103569848,
          -59.44300977446804
        ]
      }
    },
    {
      "type": "Feature",
      "properties": {
        "norad_id": 30740,
        "name": "FENGYUN 1C DEB",
        "group": "fengyun-1c-debris",
        "lat": -4.536522867197857,
        "lon": -98.3278326344964,
        "alt_km": 702.3651253289672,
        "timestamp": "2025-12-03T13:52:09.840202+00:00",
        "meta_object_name": "FENGYUN 1C DEB",
        "meta_object_id": "1999-025ATA",
        "meta_epoch": "2025-12-02T05:35:26.072160",
        "meta_mean_motion": 14.51544473,
        "meta_eccentricity": 0.0032721,
        "meta_inclination": 98.6899,
        "meta_ra_of_asc_node": 80.9775,
        "meta_arg_of_pericenter": 167.2745,
        "meta_mean_anomaly": 192.9283,
        "meta_ephemeris_type": 0,
        "meta_classification_type": "U",
        "meta_norad_cat_id": 30740,
        "meta_element_set_no": 999,
        "meta_rev_at_epoch": 97495,
        "meta_bstar": 0.0033803,
        "meta_mean_motion_dot": 0.00013595,
        "meta_mean_motion_ddot": 0,
        "tle_line1": "1 30740U 99025ATA 25336.23294065  .00013595  00000+0  33803-2 0  9990",
        "tle_line2": "2 30740  98.6899  80.9775 0032721 167.2745 192.9283 14.51544473974954"
      },
      "geometry": {
        "type": "Point",
        "coordinates": [
          -98.3278326344964,
          -4.536522867197857
        ]
      }
    },
    {
      "type": "Feature",
      "properties": {
        "norad_id": 30741,
        "name": "FENGYUN 1C DEB",
        "group": "fengyun-1c-debris",
        "lat": -63.59679268244294,
        "lon": 149.20191971014563,
        "alt_km": 856.8010499945685,
        "timestamp": "2025-12-03T13:52:09.840212+00:00",
        "meta_object_name": "FENGYUN 1C DEB",
        "meta_object_id": "1999-025ATB",
        "meta_epoch": "2025-12-03T08:14:24.408384",
        "meta_mean_motion": 14.13225485,
        "meta_eccentricity": 0.0006804,
        "meta_inclination": 98.6799,
        "meta_ra_of_asc_node": 346.8944,
        "meta_arg_of_pericenter": 140.4895,
        "meta_mean_anomaly": 351.7007,
        "meta_ephemeris_type": 0,
        "meta_classification_type": "U",
        "meta_norad_cat_id": 30741,
        "meta_element_set_no": 999,
        "meta_rev_at_epoch": 96686,
        "meta_bstar": 0.00022307784,
        "meta_mean_motion_dot": 3.75e-06,
        "meta_mean_motion_ddot": 0,
        "tle_line1": "1 30741U 99025ATB 25337.34333806  .00000375  00000+0  22308-3 0  9992",
        "tle_line2": "2 30741  98.6799 346.8944 0006804 140.4895 351.7007 14.13225485966865"
      },
      "geometry": {
        "type": "Point",
        "coordinates": [
          149.20191971014563,
          -63.59679268244294
        ]
      }
    },
    {
      "type": "Feature",
      "properties": {
        "norad_id": 30742,
        "name": "FENGYUN 1C DEB",
        "group": "fengyun-1c-debris",
        "lat": -20.344926733451064,
        "lon": 25.45545896895352,
        "alt_km": 860.390942472829,
        "timestamp": "2025-12-03T13:52:09.840223+00:00",
        "meta_object_name": "FENGYUN 1C DEB",
        "meta_object_id": "1999-025ATC",
        "meta_epoch": "2025-12-03T02:11:08.092032",
        "meta_mean_motion": 14.10285333,
        "meta_eccentricity": 0.0070611,
        "meta_inclination": 98.8692,
        "meta_ra_of_asc_node": 21.6562,
        "meta_arg_of_pericenter": 253.9835,
        "meta_mean_anomaly": 134.4626,
        "meta_ephemeris_type": 0,
        "meta_classification_type": "U",
        "meta_norad_cat_id": 30742,
        "meta_element_set_no": 999,
        "meta_rev_at_epoch": 95906,
        "meta_bstar": 0.0018993553,
        "meta_mean_motion_dot": 3.404e-05,
        "meta_mean_motion_ddot": 0,
        "tle_line1": "1 30742U 99025ATC 25337.09106588  .00003404  00000+0  18994-2 0  9991",
        "tle_line2": "2 30742  98.8692  21.6562 0070611 253.9835 134.4626 14.10285333959067"
      },
      "geometry": {
        "type": "Point",
        "coordinates": [
          25.45545896895352,
          -20.344926733451064
        ]
      }
    },
    {
      "type": "Feature",
      "properties": {
        "norad_id": 30744,
        "name": "FENGYUN 1C DEB",
        "group": "fengyun-1c-debris",
        "lat": 39.15116176670095,
        "lon": 115.5645760489248,
        "alt_km": 602.8076867877162,
        "timestamp": "2025-12-03T13:52:09.840233+00:00",
        "meta_object_name": "FENGYUN 1C DEB",
        "meta_object_id": "1999-025ATE",
        "meta_epoch": "2025-12-02T08:47:03.639840",
        "meta_mean_motion": 14.88004398,
        "meta_eccentricity": 0.0009515,
        "meta_inclination": 98.7315,
        "meta_ra_of_asc_node": 121.4193,
        "meta_arg_of_pericenter": 296.0234,
        "meta_mean_anomaly": 95.4638,
        "meta_ephemeris_type": 0,
        "meta_classification_type": "U",
        "meta_norad_cat_id": 30744,
        "meta_element_set_no": 999,
        "meta_rev_at_epoch": 97934,
        "meta_bstar": 0.0058487426,
        "meta_mean_motion_dot": 0.00054069,
        "meta_mean_motion_ddot": 0,
        "tle_line1": "1 30744U 99025ATE 25336.36601435  .00054069  00000+0  58487-2 0  9997",
        "tle_line2": "2 30744  98.7315 121.4193 0009515 296.0234  95.4638 14.88004398979342"
      },
      "geometry": {
        "type": "Point",
        "coordinates": [
          115.5645760489248,
          39.15116176670095
        ]
      }
    }
  ]
}